SKYSAT-C1               
1 41601U 16040C   26183.00064639  .00010682  00000+0  30140-3 0  9998
2 41601  96.9550 213.9188 0001877  25.1186 335.0150 15.36552453560148
LAPAN-A3                
1 41603U 16040E   26184.63852431  .00004885  00000+0  15441-3 0  9990
2 41603  97.1494 180.2449 0008860 325.7569  34.3101 15.33216179557330
GAOFEN-3                
1 41727U 16049A   26184.66531421 -.00000083  00000+0 -11904-4 0  9991
2 41727  98.4007 192.2024 0001687  92.7243 267.4140 14.42217062521023
SKYSAT-C4               
1 41771U 16058B   26183.51505949  .00016943  00000+0  31364-3 0  9990
2 41771  96.9163 204.6492 0002682 136.9395 223.2067 15.49073522547845
SKYSAT-C5               
1 41772U 16058C   26183.55806025  .00008161  00000+0  24494-3 0  9993
2 41772  97.0457 223.5135 0001929 191.1565 168.9636 15.34689761546100
SKYSAT-C2               
1 41773U 16058D   26183.50700311  .00012396  00000+0  28849-3 0  9993
2 41773  97.0157 205.0276 0003095  35.1198 325.0254 15.42422166547414
SKYSAT-C3               
1 41774U 16058E   26183.80234108  .00025681  00000+0  40942-3 0  9992
2 41774  96.8995 214.0541 0001587 132.8272 227.3116 15.53216241548531
ALSAT-1B                
1 41785U 16059C   26184.61929462  .00000478  00000+0  83034-4 0  9996
2 41785  97.7744 192.6740 0009449 164.3329 195.8173 14.72287654522995
PATHFINDER 1            
1 41787U 16059E   26183.81713068  .00000748  00000+0  13881-3 0  9994
2 41787  97.8169 182.3881 0029060 153.7681 206.5004 14.67681735522002
SCATSAT 1               
1 41790U 16059H   26183.63285098  .00001519  00000+0  20536-3 0  9997
2 41790  98.1185 247.5581 0054286 196.9452 162.9947 14.79561788103871
GOKTURK 1A              
1 41875U 16073A   26184.66263568  .00000056  00000+0  20185-4 0  9995
2 41875  98.1232  79.0777 0001405  78.0092 282.1267 14.62785305511236
RESOURCESAT-2A          
1 41877U 16074A   26184.68102465  .00000608  00000+0  29739-3 0  9994
2 41877  98.7525 258.0507 0003007  50.9187 309.2258 14.21607666496649
CARTOSAT-2D             
1 41948U 17008A   26184.69022569  .00006247  00000+0  29978-3 0  9998
2 41948  97.4095 243.6879 0004918 173.1469 186.9834 15.19213920520081
SENTINEL-2B             
1 42063U 17013A   26185.13055773 -.00000019  00000+0  95463-5 0  9992
2 42063  98.5693 259.6663 0001189  95.4617 264.6702 14.30812515487067
CARTOSAT-2E             
1 42767U 17036C   26184.64211719  .00006460  00000+0  30921-3 0  9998
2 42767  97.4261 244.1738 0002505 235.1215 124.9785 15.19297673500648
FORMOSAT-5              
1 42920U 17049A   26183.77650547  .00000202  00000+0  62165-4 0  9996
2 42920  98.2251 258.7398 0012137  40.6850 319.5250 14.50904612468932
SENTINEL-5P             
1 42969U 17064A   26183.84975961  .00000061  00000+0  50098-4 0  9999
2 42969  98.7927 125.8697 0001055  91.7647 268.3650 14.19521617451789
SKYSAT-C11              
1 42987U 17068A   26183.85434107  .00033708  00000+0  43820-3 0  9994
2 42987  97.4374 333.3766 0000548 157.1121 203.0160 15.58726723485681
SKYSAT-C10              
1 42988U 17068B   26183.80967319  .00011042  00000+0  32847-3 0  9990
2 42988  97.4529 320.8125 0001252 108.7727 251.3652 15.34904040484754
SKYSAT-C9               
1 42989U 17068C   26183.81587099  .00015119  00000+0  35656-3 0  9995
2 42989  97.4450 321.9041 0009389  83.9821 276.2496 15.41951093485161
SKYSAT-C8               
1 42990U 17068D   26183.82218207  .00012202  00000+0  33620-3 0  9999
2 42990  97.4548 320.6850 0001266  94.9370 265.2019 15.37283391484715
SKYSAT-C7               
1 42991U 17068E   26183.81628497  .00012033  00000+0  33188-3 0  9996
2 42991  97.4558 321.6696 0006700  60.6962 299.4951 15.37235684484773
SKYSAT-C6               
1 42992U 17068F   26183.80045990  .00010302  00000+0  31310-3 0  9999
2 42992  97.4593 321.5616 0005221 108.7442 251.4368 15.34234376484716
CARTOSAT-2F             
1 43111U 18004A   26184.67458708  .00004676  00000+0  22545-3 0  9992
2 43111  97.4778 244.1481 0001735 154.3157 205.8164 15.19196779469831
GAOFEN-1 02             
1 43259U 18031A   26184.69917916  .00000938  00000+0  14215-3 0  9990
2 43259  98.0519 247.1797 0002245 344.4093  15.7047 14.76459829445130
GAOFEN-1 03             
1 43260U 18031B   26184.67720495  .00000868  00000+0  13214-3 0  9994
2 43260  98.0510 247.0143 0003256  44.4567 315.6903 14.76449791445122
GAOFEN-1 04             
1 43262U 18031D   26184.65297384  .00000695  00000+0  10728-3 0  9995
2 43262  98.0519 247.1830 0001800  60.0109 300.1279 14.76457327445114
SENTINEL-3B             
1 43437U 18039A   26183.47802154  .00000140  00000+0  76068-4 0  9998
2 43437  98.6244 250.7906 0000853 115.3560 244.7708 14.26739163426301
GAOFEN-5 01             
1 43461U 18043A   26183.68084358  .00000381  00000+0  88497-4 0  9997
2 43461  98.4579 155.5932 0002701  55.5650 304.5805 14.60616345433953
GAOFEN-6                
1 43484U 18048A   26184.67485196  .00000426  00000+0  68854-4 0  9997
2 43484  98.0962 247.3492 0011928 113.7167 246.5295 14.76371202435825
